[{"OBJECT_NAME":"STARLINK-35864","OBJECT_ID":"2025-298G","EPOCH":"2026-03-09T23:27:56.636640","MEAN_MOTION":14.98572932,"ECCENTRICITY":0.00033352,"INCLINATION":70.0031,"RA_OF_ASC_NODE":13.6076,"ARG_OF_PERICENTER":298.5733,"MEAN_ANOMALY":61.509,"EPHEMERIS_TYPE":0,"CLASSIFICATION_TYPE":"U","NORAD_CAT_ID":67081,"ELEMENT_SET_NO":999,"REV_AT_EPOCH":1326,"BSTAR":-0.01738886,"MEAN_MOTION_DOT":-0.00202964,"MEAN_MOTION_DDOT":0},{"OBJECT_NAME":"FENGYUN 1C DEB","OBJECT_ID":"1999-025BLM","EPOCH":"2026-03-08T05:01:42.980736","MEAN_MOTION":14.80168873,"ECCENTRICITY":0.01365523,"INCLINATION":98.865,"RA_OF_ASC_NODE":239.8189,"ARG_OF_PERICENTER":197.7839,"MEAN_ANOMALY":161.8566,"EPHEMERIS_TYPE":0,"CLASSIFICATION_TYPE":"U","NORAD_CAT_ID":31231,"ELEMENT_SET_NO":999,"REV_AT_EPOCH":64283,"BSTAR":0.0066268112,"MEAN_MOTION_DOT":0.00059401,"MEAN_MOTION_DDOT":0}]
